#aP2004  1 30  0  0  0.00000000      96 ORBIT IGb00 HLM  IGS
## 1255 432000.00000000   900.00000000 53034 0.0000000000000
+   29     1  2  3  4  5  6  7  8  9 10 11 13 14 15 16 17 18
+         20 21 22 23 24 25 26 27 28 29 30 31  0  0  0  0  0
+          0  0  0  0  0  0  0  0  0  0  0  0  0  0  0  0  0
+          0  0  0  0  0  0  0  0  0  0  0  0  0  0  0  0  0
+          0  0  0  0  0  0  0  0  0  0  0  0  0  0  0  0  0
++         3  3  4  3  3  4  3  3  3  3  3  4  4  3  4  3  4
++         3  4  4  4  3  4  3  4  4  3  3  4  0  0  0  0  0
++         0  0  0  0  0  0  0  0  0  0  0  0  0  0  0  0  0
++         0  0  0  0  0  0  0  0  0  0  0  0  0  0  0  0  0
++         0  0  0  0  0  0  0  0  0  0  0  0  0  0  0  0  0
%c cc cc ccc ccc cccc cccc cccc cccc ccccc ccccc ccccc ccccc
%c cc cc ccc ccc cccc cccc cccc cccc ccccc ccccc ccccc ccccc
%f  0.0000000  0.000000000  0.00000000000  0.000000000000000
%f  0.0000000  0.000000000  0.00000000000  0.000000000000000
%i    0    0    0    0      0      0      0      0         0
%i    0    0    0    0      0      0      0      0         0
/* FINAL ORBIT COMBINATION FROM WEIGHTED AVERAGE OF:        
/* cod emr esa gfz jpl mit ngs sio                          
/* REFERENCED TO GPS CLOCK AND TO WEIGHTED MEAN POLE:       
/* CLK ANT Z-OFFSET (M): II/IIA 1.023; IIR 0.000            
*  2004  1 30  3  0  0.00000000
P  1  -3623.483865  19673.537991 -17281.964945    327.169414
P  2 -24851.326841   6352.606051   7307.638004   -265.997017
P  3 -17667.354763   -758.262780  19782.798750     81.769626
P  4  13561.882437   7028.464532 -21718.547458    -53.739773
P  5  14673.477476 -13273.250563 -17761.590090     15.396207
P  6  -4049.883454 -23994.483489 -10295.866889     -3.289811
P  7  16640.702239  19565.972343  -6697.542670    629.422763
P  8   7131.646150  14722.220757  20659.110262    375.894718
P  9  15492.457257 -21019.872080   3119.153212    -27.837035
P 10  26236.979292  -1352.546168   4769.345128     38.599313
P 11 -13694.663977  22584.452341   2023.844378     93.107393
P 13   6001.511112  24595.482892  -8200.436578    -31.417099
P 14 -16526.837494 -18411.855184  -9593.517518    -17.997957
P 15 -12073.440570  -8802.086399  21733.912286    219.145074
P 16 -26501.483497  -1760.395933   -382.858868     16.308746
P 17  19704.880357 -15418.914956  -7528.321418    152.930922
P 18  -6338.356838 -15237.197403  20883.591874     -8.754878
P 20 -11427.343580  13301.246410 -20013.607352   -191.074487
P 21   1261.617624 -20918.259424  16032.936192     71.560077
P 22 -18945.405705 -12173.696391  14215.642532    -67.405937
P 23 -23095.380264  -9362.324850   9766.921206    193.458596
P 24  19092.090494  -6360.503699 -17070.690507      0.357528
P 25 -15332.898823  -3672.419972 -21008.850691     59.804168
P 26  12820.004968  -7162.079906  21864.610834    441.077132
P 27  -1774.426395  22648.297969  13792.383198    902.032698
P 28  18000.255994  12201.106711  15631.334756     17.101433
P 29  15669.252190  -1643.938519  21654.811345    218.104680
P 30     57.494571 -15720.397315 -21642.023249    762.882406
P 31 -10370.071465  12488.544024  20641.961548    127.061588
*  2004  1 30  3 15  0.00000000
P  1  -4688.475595  17859.914164 -18905.790972    327.170879
P  2 -25474.697287   6069.900172   4610.755303   -266.004680
P  3 -18746.863328  -2702.273104  18609.603245     81.773852
P  4  12200.953854   9114.179504 -21722.279862    -53.747158
P  5  16606.866122 -13155.190981 -16037.146789     15.397806
P  6  -3133.456822 -22964.488720 -12663.445012     -3.289968
P  7  16721.110797  20283.870658  -3987.396061    629.417965
P  8   5746.282115  16624.535626  19603.874392    375.888804
P  9  15481.131144 -20369.785865   5913.956354    -27.838053
P 10  26614.168620  -1162.404352   1924.255003     38.597981
P 11 -13888.486772  22054.177541   4743.155006     93.109572
P 13   5343.523719  23724.641805 -10810.495271    -31.417140
P 14 -16807.555694 -19340.412543  -6918.940083    -17.998047
P 15 -10577.278531 -10837.216096  21574.397847    219.150027
P 16 -26281.679618  -2009.295408  -3229.009409     16.308448
P 17  19259.768351 -14427.524087 -10193.298457    152.950104
P 18  -3924.389205 -15111.269112  21540.026402     -8.757356
P 20 -13625.908740  13146.048793 -18692.359289   -191.072200
P 21   2423.838091 -22232.214658  13973.268354     71.560656
P 22 -17218.016072 -12211.535838  16261.312585    -67.395033
P 23 -21900.575368  -9405.154199  12286.364820    193.459370
P 24  18017.921082  -4555.067487 -18702.161286      0.359495
P 25 -14231.506880  -5919.017556 -21267.858272     59.805915
P 26  14027.802686  -4920.002708  21797.283339    441.067585
P 27  -2666.926106  23756.154022  11469.113938    902.040428
P 28  16142.110117  12286.117166  17477.864394     17.103085
P 29  16800.361202    440.495956  20843.182242    218.109805
P 30   2482.985002 -15713.390353 -21493.796768    762.898281
P 31 -11709.818309  10413.329883  21095.097560    127.093354
*  2004  1 30  3 30  0.00000000
P  1  -5935.518083  15962.717304 -20199.358748    327.172313
P  2 -25808.299784   5772.009938   1834.856293   -266.010471
P  3 -19827.684901  -4469.350130  17115.908773     81.776377
P  4  10959.220263  11252.572395 -21350.933548    -53.754765
P  5  18336.760508 -13108.116583 -14037.077694     15.399482
P  6  -2028.994020 -21763.687824 -14809.376237     -3.290305
P  7  16663.297047  20739.124282  -1208.797721    629.413164
P  8   4530.816908  18475.599399  18202.738087    375.882213
P  9  15364.480180 -19435.755709   8603.413825    -27.839568
P 10  26678.872932   -986.602094   -953.412317     38.598289
P 11 -13988.221767  21255.043810   7380.189593     93.111897
P 13   4489.062338  22648.905065 -13235.614694    -31.417074
P 14 -16973.955939 -19988.783735  -4125.013041    -17.998318
P 15  -9210.597421 -12916.109874  21035.110319    219.155301
P 16 -25756.021288  -2281.185126  -6019.546035     16.308008
P 17  18696.918550 -13171.006551 -12674.155333    152.968747
P 18  -1451.839216 -15112.433388  21827.612454     -8.759172
P 20 -15662.738803  13100.450705 -17051.116272   -191.070241
P 21   3391.325170 -23390.395696  11667.922673     71.560981
P 22 -15281.434162 -12334.346250  18029.841658    -67.384018
P 23 -20442.620667  -9505.322778  14600.348861    193.460126
P 24  16954.484369  -2548.535158 -20004.653593      0.361963
P 25 -13236.953748  -8223.403172 -21148.511203     59.807565
P 26  15337.577240  -2778.040931  21347.348115    441.057939
P 27  -3392.371860  24661.051955   8947.480053    902.048442
P 28  14099.890195  12473.726011  19030.840442     17.104708
P 29  17984.820089   2367.222477  19681.432489    218.115047
P 30   4870.351927 -15825.024858 -20983.146761    762.913782
P 31 -13161.633637   8381.149208  21173.494581    127.125011
*  2004  1 30  3 45  0.00000000
P  1  -7355.914620  14030.133651 -21139.832241    327.175416
P  2 -25848.090717   5423.504022   -972.731356   -266.015470
P  3 -20871.948660  -6039.103050  15328.052977     81.777884
P  4   9856.271877  13398.419169 -20609.976260    -53.762110
P  5  19832.743274 -13103.429240 -11795.270563     15.400512
P  6   -731.277230 -20432.657802 -16695.861066     -3.288405
P  7  16435.927733  20947.825594   1590.477088    629.408253
P  8   3491.522610  20227.574478  16480.071309    375.875248
P  9  15180.384519 -18217.762762  11139.065371    -27.840808
P 10  26431.202588   -786.305530  -3814.954748     38.598871
P 11 -14027.956546  20187.482018   9889.246957     93.114056
P 13   3424.825918  21408.807844 -15434.327752    -31.416891
P 14 -16987.822111 -20366.286521  -1259.966581    -17.998128
P 15  -7994.079370 -14992.377030  20125.026114    219.160132
P 16 -24936.341233  -2611.941760  -8706.331418     16.307651
P 17  18059.133005 -11654.380015 -14926.438185    152.987311
P 18   1030.606925 -15244.746801  21740.808610     -8.761699
P 20 -17498.686497  13141.099296 -15117.838208   -191.068070
P 21   4174.292128 -24351.881879   9157.138169     71.561290
P 22 -13173.513531 -12565.897330  19491.564121    -67.372916
P 23 -18751.010476  -9695.023506  16671.375599    193.461096
P 24  15939.710038   -371.415226 -20954.492363      0.364620
P 25 -12367.332437 -10539.283173 -20653.100398     59.807879
P 26  16717.628521   -776.209611  20524.742907    441.048343
P 27  -3969.918024  25327.506605   6270.018099    902.056563
P 28  11913.694166  12782.968937  20263.911091     17.106042
P 29  19184.882310   4107.550884  18188.746090    218.120106
P 30   7174.496345 -16045.573391 -20118.225018    762.929621
P 31 -14698.232524   6432.733669  20876.756401    127.156800
EOF
